[{"OBJECT_NAME":"GOES 1 (SMS-C)","OBJECT_ID":"1975-100A","EPOCH":"2026-04-04T15:37:04.935648","MEAN_MOTION":1.00244572,"ECCENTRICITY":0.00047364,"INCLINATION":4.7949,"RA_OF_ASC_NODE":278.3807,"ARG_OF_PERICENTER":2.4795,"MEAN_ANOMALY":22.2399,"EPHEMERIS_TYPE":0,"CLASSIFICATION_TYPE":"U","NORAD_CAT_ID":8366,"ELEMENT_SET_NO":999,"REV_AT_EPOCH":18433,"BSTAR":0,"MEAN_MOTION_DOT":3.0e-7,"MEAN_MOTION_DDOT":0},{"OBJECT_NAME":"GOES 2","OBJECT_ID":"1977-048A","EPOCH":"2026-04-04T19:42:31.379328","MEAN_MOTION":0.99399742,"ECCENTRICITY":0.00137261,"INCLINATION":6.595,"RA_OF_ASC_NODE":293.9823,"ARG_OF_PERICENTER":51.5886,"MEAN_ANOMALY":159.6651,"EPHEMERIS_TYPE":0,"CLASSIFICATION_TYPE":"U","NORAD_CAT_ID":10061,"ELEMENT_SET_NO":999,"REV_AT_EPOCH":4554,"BSTAR":0,"MEAN_MOTION_DOT":-4.5e-7,"MEAN_MOTION_DDOT":0},{"OBJECT_NAME":"GOES 3","OBJECT_ID":"1978-062A","EPOCH":"2026-04-04T16:28:22.517472","MEAN_MOTION":0.9935845,"ECCENTRICITY":0.0002088,"INCLINATION":7.069,"RA_OF_ASC_NODE":299.849,"ARG_OF_PERICENTER":7.086,"MEAN_ANOMALY":188.9576,"EPHEMERIS_TYPE":0,"CLASSIFICATION_TYPE":"U","NORAD_CAT_ID":10953,"ELEMENT_SET_NO":999,"REV_AT_EPOCH":12780,"BSTAR":0,"MEAN_MOTION_DOT":9.8e-7,"MEAN_MOTION_DDOT":0},{"OBJECT_NAME":"GOES 4","OBJECT_ID":"1980-074A","EPOCH":"2026-04-04T18:49:13.990080","MEAN_MOTION":0.99233024,"ECCENTRICITY":0.00326973,"INCLINATION":8.1446,"RA_OF_ASC_NODE":303.5155,"ARG_OF_PERICENTER":104.5263,"MEAN_ANOMALY":257.169,"EPHEMERIS_TYPE":0,"CLASSIFICATION_TYPE":"U","NORAD_CAT_ID":11964,"ELEMENT_SET_NO":999,"REV_AT_EPOCH":12671,"BSTAR":0,"MEAN_MOTION_DOT":-8.2e-7,"MEAN_MOTION_DDOT":0},{"OBJECT_NAME":"GOES 5","OBJECT_ID":"1981-049A","EPOCH":"2026-04-04T14:02:36.496032","MEAN_MOTION":1.00206582,"ECCENTRICITY":0.0004097,"INCLINATION":9.4911,"RA_OF_ASC_NODE":316.151,"ARG_OF_PERICENTER":342.9567,"MEAN_ANOMALY":8.6846,"EPHEMERIS_TYPE":0,"CLASSIFICATION_TYPE":"U","NORAD_CAT_ID":12472,"ELEMENT_SET_NO":999,"REV_AT_EPOCH":12210,"BSTAR":0,"MEAN_MOTION_DOT":-1.57e-6,"MEAN_MOTION_DDOT":0},{"OBJECT_NAME":"GOES 6","OBJECT_ID":"1983-041A","EPOCH":"2026-04-04T15:39:42.185376","MEAN_MOTION":1.00220902,"ECCENTRICITY":0.0001709,"INCLINATION":10.3087,"RA_OF_ASC_NODE":321.7072,"ARG_OF_PERICENTER":311.1172,"MEAN_ANOMALY":39.5968,"EPHEMERIS_TYPE":0,"CLASSIFICATION_TYPE":"U","NORAD_CAT_ID":14050,"ELEMENT_SET_NO":999,"REV_AT_EPOCH":21527,"BSTAR":0,"MEAN_MOTION_DOT":-3.7e-7,"MEAN_MOTION_DDOT":0},{"OBJECT_NAME":"GOES 7","OBJECT_ID":"1987-022A","EPOCH":"2026-04-04T10:14:39.046848","MEAN_MOTION":0.99907334,"ECCENTRICITY":0.00040588,"INCLINATION":12.9934,"RA_OF_ASC_NODE":338.1585,"ARG_OF_PERICENTER":24.865,"MEAN_ANOMALY":168.6782,"EPHEMERIS_TYPE":0,"CLASSIFICATION_TYPE":"U","NORAD_CAT_ID":17561,"ELEMENT_SET_NO":999,"REV_AT_EPOCH":12622,"BSTAR":0,"MEAN_MOTION_DOT":0,"MEAN_MOTION_DDOT":0},{"OBJECT_NAME":"GOES 8","OBJECT_ID":"1994-022A","EPOCH":"2026-04-03T23:34:38.525376","MEAN_MOTION":0.98906605,"ECCENTRICITY":0.00058518,"INCLINATION":14.3674,"RA_OF_ASC_NODE":14.2407,"ARG_OF_PERICENTER":25.8156,"MEAN_ANOMALY":163.3379,"EPHEMERIS_TYPE":0,"CLASSIFICATION_TYPE":"U","NORAD_CAT_ID":23051,"ELEMENT_SET_NO":999,"REV_AT_EPOCH":12339,"BSTAR":0,"MEAN_MOTION_DOT":-1.13e-6,"MEAN_MOTION_DDOT":0},{"OBJECT_NAME":"GOES 9","OBJECT_ID":"1995-025A","EPOCH":"2026-04-04T12:33:59.512608","MEAN_MOTION":0.98799732,"ECCENTRICITY":0.00027776,"INCLINATION":13.8983,"RA_OF_ASC_NODE":15.0896,"ARG_OF_PERICENTER":195.7774,"MEAN_ANOMALY":285.3709,"EPHEMERIS_TYPE":0,"CLASSIFICATION_TYPE":"U","NORAD_CAT_ID":23581,"ELEMENT_SET_NO":999,"REV_AT_EPOCH":11203,"BSTAR":0,"MEAN_MOTION_DOT":-1.64e-6,"MEAN_MOTION_DDOT":0},{"OBJECT_NAME":"GOES 10","OBJECT_ID":"1997-019A","EPOCH":"2026-04-04T03:49:38.799840","MEAN_MOTION":0.99127384,"ECCENTRICITY":0.00300222,"INCLINATION":13.0402,"RA_OF_ASC_NODE":21.6274,"ARG_OF_PERICENTER":239.6985,"MEAN_ANOMALY":317.4901,"EPHEMERIS_TYPE":0,"CLASSIFICATION_TYPE":"U","NORAD_CAT_ID":24786,"ELEMENT_SET_NO":999,"REV_AT_EPOCH":10533,"BSTAR":0,"MEAN_MOTION_DOT":-2.61e-6,"MEAN_MOTION_DDOT":0},{"OBJECT_NAME":"GOES 11","OBJECT_ID":"2000-022A","EPOCH":"2026-04-04T16:53:57.563808","MEAN_MOTION":0.99045008,"ECCENTRICITY":0.00050557,"INCLINATION":11.6477,"RA_OF_ASC_NODE":47.1409,"ARG_OF_PERICENTER":263.4309,"MEAN_ANOMALY":281.388,"EPHEMERIS_TYPE":0,"CLASSIFICATION_TYPE":"U","NORAD_CAT_ID":26352,"ELEMENT_SET_NO":999,"REV_AT_EPOCH":5174,"BSTAR":0,"MEAN_MOTION_DOT":-2.88e-6,"MEAN_MOTION_DDOT":0},{"OBJECT_NAME":"GOES 12","OBJECT_ID":"2001-031A","EPOCH":"2026-04-04T13:36:31.495680","MEAN_MOTION":0.99140752,"ECCENTRICITY":0.0008476,"INCLINATION":12.0527,"RA_OF_ASC_NODE":37.8809,"ARG_OF_PERICENTER":302.3959,"MEAN_ANOMALY":229.5798,"EPHEMERIS_TYPE":0,"CLASSIFICATION_TYPE":"U","NORAD_CAT_ID":26871,"ELEMENT_SET_NO":999,"REV_AT_EPOCH":9003,"BSTAR":0,"MEAN_MOTION_DOT":-2.03e-6,"MEAN_MOTION_DDOT":0},{"OBJECT_NAME":"EWS-G1 (GOES 13)","OBJECT_ID":"2006-018A","EPOCH":"2026-04-04T21:43:22.127808","MEAN_MOTION":0.98784828,"ECCENTRICITY":0.00618908,"INCLINATION":4.3432,"RA_OF_ASC_NODE":77.2963,"ARG_OF_PERICENTER":275.0458,"MEAN_ANOMALY":247.2007,"EPHEMERIS_TYPE":0,"CLASSIFICATION_TYPE":"U","NORAD_CAT_ID":29155,"ELEMENT_SET_NO":999,"REV_AT_EPOCH":4252,"BSTAR":0,"MEAN_MOTION_DOT":3.7e-7,"MEAN_MOTION_DDOT":0},{"OBJECT_NAME":"GOES 14","OBJECT_ID":"2009-033A","EPOCH":"2026-04-04T18:47:29.156640","MEAN_MOTION":1.00111808,"ECCENTRICITY":0.00018319,"INCLINATION":1.5006,"RA_OF_ASC_NODE":83.9313,"ARG_OF_PERICENTER":296.9406,"MEAN_ANOMALY":277.1581,"EPHEMERIS_TYPE":0,"CLASSIFICATION_TYPE":"U","NORAD_CAT_ID":35491,"ELEMENT_SET_NO":999,"REV_AT_EPOCH":585,"BSTAR":0,"MEAN_MOTION_DOT":4.8e-7,"MEAN_MOTION_DDOT":0},{"OBJECT_NAME":"EWS-G2 (GOES 15)","OBJECT_ID":"2010-008A","EPOCH":"2026-04-04T21:42:21.626208","MEAN_MOTION":1.0027171,"ECCENTRICITY":0.00033595,"INCLINATION":1.0853,"RA_OF_ASC_NODE":84.3037,"ARG_OF_PERICENTER":17.8549,"MEAN_ANOMALY":119.9209,"EPHEMERIS_TYPE":0,"CLASSIFICATION_TYPE":"U","NORAD_CAT_ID":36411,"ELEMENT_SET_NO":999,"REV_AT_EPOCH":5890,"BSTAR":0,"MEAN_MOTION_DOT":2.3e-7,"MEAN_MOTION_DDOT":0},{"OBJECT_NAME":"GOES 16","OBJECT_ID":"2016-071A","EPOCH":"2026-04-04T20:50:44.818656","MEAN_MOTION":1.00272259,"ECCENTRICITY":0.00018459,"INCLINATION":0.174,"RA_OF_ASC_NODE":85.2963,"ARG_OF_PERICENTER":246.4712,"MEAN_ANOMALY":69.399,"EPHEMERIS_TYPE":0,"CLASSIFICATION_TYPE":"U","NORAD_CAT_ID":41866,"ELEMENT_SET_NO":999,"REV_AT_EPOCH":3436,"BSTAR":0,"MEAN_MOTION_DOT":-9.0e-7,"MEAN_MOTION_DDOT":0},{"OBJECT_NAME":"GOES 17","OBJECT_ID":"2018-022A","EPOCH":"2026-04-04T20:55:06.900096","MEAN_MOTION":1.00271642,"ECCENTRICITY":0.00012031,"INCLINATION":0.7495,"RA_OF_ASC_NODE":86.7995,"ARG_OF_PERICENTER":258.3114,"MEAN_ANOMALY":72.349,"EPHEMERIS_TYPE":0,"CLASSIFICATION_TYPE":"U","NORAD_CAT_ID":43226,"ELEMENT_SET_NO":999,"REV_AT_EPOCH":2968,"BSTAR":0,"MEAN_MOTION_DOT":-1.81e-6,"MEAN_MOTION_DDOT":0}]
