GOES 1 (SMS-C)          
1 08366U 75100A   26094.65075157  .00000030  00000+0  00000+0 0  9994
2 08366   4.7949 278.3807 0004736   2.4795  22.2399  1.00244572184331
GOES 2                  
1 10061U 77048A   26094.82119652 -.00000045  00000+0  00000+0 0  9997
2 10061   6.5950 293.9823 0013726  51.5886 159.6651  0.99399742 45546
GOES 3                  
1 10953U 78062A   26094.68637173  .00000098  00000+0  00000+0 0  9998
2 10953   7.0690 299.8490 0002088   7.0860 188.9576  0.99358450127807
GOES 4                  
1 11964U 80074A   26094.78418970 -.00000082  00000+0  00000+0 0  9994
2 11964   8.1446 303.5155 0032697 104.5263 257.1690  0.99233024126715
GOES 5                  
1 12472U 81049A   26094.58514463 -.00000157  00000+0  00000+0 0  9997
2 12472   9.4911 316.1510 0004097 342.9567   8.6846  1.00206582122107
GOES 6                  
1 14050U 83041A   26094.65257159 -.00000037  00000+0  00000+0 0  9996
2 14050  10.3087 321.7072 0001709 311.1172  39.5968  1.00220902215279
GOES 7                  
1 17561U 87022A   26094.42684082  .00000000  00000+0  00000+0 0  9992
2 17561  12.9934 338.1585 0004058  24.8650 168.6782  0.99907334126220
GOES 8                  
1 23051U 94022A   26093.98239034 -.00000113  00000+0  00000+0 0  9990
2 23051  14.3674  14.2407 0005851  25.8156 163.3379  0.98906605123395
GOES 9                  
1 23581U 95025A   26094.52360547 -.00000164  00000+0  00000+0 0  9993
2 23581  13.8983  15.0896 0002777 195.7774 285.3709  0.98799732112030
GOES 10                 
1 24786U 97019A   26094.15947685 -.00000261  00000+0  00000+0 0  9997
2 24786  13.0402  21.6274 0030022 239.6985 317.4901  0.99127384105330
GOES 11                 
1 26352U 00022A   26094.70413847 -.00000288  00000+0  00000+0 0  9994
2 26352  11.6477  47.1409 0005055 263.4309 281.3880  0.99045008 51745
GOES 12                 
1 26871U 01031A   26094.56703120 -.00000203  00000+0  00000+0 0  9998
2 26871  12.0527  37.8809 0008476 302.3959 229.5798  0.99140752 90035
EWS-G1 (GOES 13)        
1 29155U 06018A   26094.90511722  .00000037  00000+0  00000+0 0  9993
2 29155   4.3432  77.2963 0061890 275.0458 247.2007  0.98784828 42528
GOES 14                 
1 35491U 09033A   26094.78297635  .00000048  00000+0  00000+0 0  9995
2 35491   1.5006  83.9313 0001831 296.9406 277.1581  1.00111808  5851
EWS-G2 (GOES 15)        
1 36411U 10008A   26094.90441697  .00000023  00000+0  00000+0 0  9998
2 36411   1.0853  84.3037 0003359  17.8549 119.9209  1.00271710 58905
GOES 16                 
1 41866U 16071A   26094.86857429 -.00000090  00000+0  00000+0 0  9998
2 41866   0.1740  85.2963 0001845 246.4712  69.3990  1.00272259 34366
GOES 17                 
1 43226U 18022A   26094.87160764 -.00000181  00000+0  00000+0 0  9999
2 43226   0.7495  86.7995 0001203 258.3114  72.3490  1.00271642 29681
